JILIN-1 KUANFU 01       
1 45016U 20003A   26198.95083852  .00001598  00000+0  99781-4 0  9997
2 45016  97.5019 272.3067 0009530 187.1183 172.9913 15.10875862359970
JILIN-1 KUANFU-01B      
1 49003U 21061A   26198.92521738  .00000993  00000+0  65327-4 0  9996
2 49003  97.5204 274.5472 0005673 328.5444  31.5445 15.09815073277981
JILIN-1 KUANFU 01C      
1 52443U 22048A   26198.91748061  .00001227  00000+0  80084-4 0  9991
2 52443  97.5249 275.5302 0017517 210.3420 149.6797 15.09607251231839
JILIN-1 KUANFU 02A      
1 57696U 23127A   26198.93459150  .00002555  00000+0  15744-3 0  9990
2 57696  97.5570 292.3656 0010472 226.2215 133.8149 15.10825631160272
JILIN-01 KUANFU 02B 1   
1 61189U 24169A   26198.95150999  .00001573  00000+0  10328-3 0  9992
2 61189  97.5577 288.0027 0001311 328.0461  32.0688 15.09066880100465
JILIN-01 KUANFU 02B 2   
1 61190U 24169B   26198.93120418  .00001947  00000+0  12708-3 0  9994
2 61190  97.5570 287.3671 0004848 266.7795  93.2879 15.09028791100463
JILIN-01 KUANFU 02B 3   
1 61191U 24169C   26198.94008338  .00001834  00000+0  11963-3 0  9999
2 61191  97.5566 287.8088 0013287 196.1330 163.9478 15.09067142100467
JILIN-01 KUANFU 02B 4   
1 61192U 24169D   26198.90888313  .00002011  00000+0  13078-3 0  9992
2 61192  97.5529 287.3030 0014230 154.9569 205.2353 15.09054872100462
JILIN-01 KUANFU 02B 5   
1 61193U 24169E   26198.89585628  .00001566  00000+0  10270-3 0  9999
2 61193  97.5578 288.0889 0013415 178.1984 181.9295 15.09085422100460
JILIN-01 KUANFU 02B 6   
1 61194U 24169F   26198.91956472  .00002048  00000+0  13308-3 0  9993
2 61194  97.5558 288.0039 0015852 211.4879 148.5403 15.09045350100474
