{"fetched_at":"2026-07-18T06:28:13.986Z","source":"https://celestrak.org/NORAD/elements/gp.php?NAME=JILIN&FORMAT=JSON","constellation":"jilin-1-kuanfu","records":[{"OBJECT_NAME":"JILIN-1 KUANFU 01","OBJECT_ID":"2020-003A","EPOCH":"2026-07-17T22:49:12.448128","CLASSIFICATION_TYPE":"U","MEAN_MOTION":15.10875862,"ECCENTRICITY":0.00095303,"INCLINATION":97.5019,"RA_OF_ASC_NODE":272.3067,"ARG_OF_PERICENTER":187.1183,"MEAN_ANOMALY":172.9913,"EPHEMERIS_TYPE":0,"NORAD_CAT_ID":45016,"ELEMENT_SET_NO":999,"REV_AT_EPOCH":35997,"BSTAR":0.000099780702,"MEAN_MOTION_DOT":0.00001598,"MEAN_MOTION_DDOT":0},{"OBJECT_NAME":"JILIN-1 KUANFU-01B","OBJECT_ID":"2021-061A","EPOCH":"2026-07-17T22:12:18.781632","CLASSIFICATION_TYPE":"U","MEAN_MOTION":15.09815073,"ECCENTRICITY":0.00056739,"INCLINATION":97.5204,"RA_OF_ASC_NODE":274.5472,"ARG_OF_PERICENTER":328.5444,"MEAN_ANOMALY":31.5445,"EPHEMERIS_TYPE":0,"NORAD_CAT_ID":49003,"ELEMENT_SET_NO":999,"REV_AT_EPOCH":27798,"BSTAR":0.000065327365,"MEAN_MOTION_DOT":0.00000993,"MEAN_MOTION_DDOT":0},{"OBJECT_NAME":"JILIN-1 KUANFU 01C","OBJECT_ID":"2022-048A","EPOCH":"2026-07-17T22:01:10.324704","CLASSIFICATION_TYPE":"U","MEAN_MOTION":15.09607251,"ECCENTRICITY":0.00175178,"INCLINATION":97.5249,"RA_OF_ASC_NODE":275.5302,"ARG_OF_PERICENTER":210.342,"MEAN_ANOMALY":149.6797,"EPHEMERIS_TYPE":0,"NORAD_CAT_ID":52443,"ELEMENT_SET_NO":999,"REV_AT_EPOCH":23183,"BSTAR":0.000080083964,"MEAN_MOTION_DOT":0.00001227,"MEAN_MOTION_DDOT":0},{"OBJECT_NAME":"JILIN-1 KUANFU 02A","OBJECT_ID":"2023-127A","EPOCH":"2026-07-17T22:25:48.705600","CLASSIFICATION_TYPE":"U","MEAN_MOTION":15.10825631,"ECCENTRICITY":0.00104723,"INCLINATION":97.557,"RA_OF_ASC_NODE":292.3656,"ARG_OF_PERICENTER":226.2215,"MEAN_ANOMALY":133.8149,"EPHEMERIS_TYPE":0,"NORAD_CAT_ID":57696,"ELEMENT_SET_NO":999,"REV_AT_EPOCH":16027,"BSTAR":0.00015744461,"MEAN_MOTION_DOT":0.00002555,"MEAN_MOTION_DDOT":0},{"OBJECT_NAME":"JILIN-01 KUANFU 02B 1","OBJECT_ID":"2024-169A","EPOCH":"2026-07-17T22:50:10.463136","CLASSIFICATION_TYPE":"U","MEAN_MOTION":15.0906688,"ECCENTRICITY":0.00013114,"INCLINATION":97.5577,"RA_OF_ASC_NODE":288.0027,"ARG_OF_PERICENTER":328.0461,"MEAN_ANOMALY":32.0688,"EPHEMERIS_TYPE":0,"NORAD_CAT_ID":61189,"ELEMENT_SET_NO":999,"REV_AT_EPOCH":10046,"BSTAR":0.0001032815,"MEAN_MOTION_DOT":0.00001573,"MEAN_MOTION_DDOT":0},{"OBJECT_NAME":"JILIN-01 KUANFU 02B 2","OBJECT_ID":"2024-169B","EPOCH":"2026-07-17T22:20:56.041152","CLASSIFICATION_TYPE":"U","MEAN_MOTION":15.09028791,"ECCENTRICITY":0.00048489,"INCLINATION":97.557,"RA_OF_ASC_NODE":287.3671,"ARG_OF_PERICENTER":266.7795,"MEAN_ANOMALY":93.2879,"EPHEMERIS_TYPE":0,"NORAD_CAT_ID":61190,"ELEMENT_SET_NO":999,"REV_AT_EPOCH":10046,"BSTAR":0.0001270764,"MEAN_MOTION_DOT":0.00001947,"MEAN_MOTION_DDOT":0},{"OBJECT_NAME":"JILIN-01 KUANFU 02B 3","OBJECT_ID":"2024-169C","EPOCH":"2026-07-17T22:33:43.204032","CLASSIFICATION_TYPE":"U","MEAN_MOTION":15.09067142,"ECCENTRICITY":0.00132872,"INCLINATION":97.5566,"RA_OF_ASC_NODE":287.8088,"ARG_OF_PERICENTER":196.133,"MEAN_ANOMALY":163.9478,"EPHEMERIS_TYPE":0,"NORAD_CAT_ID":61191,"ELEMENT_SET_NO":999,"REV_AT_EPOCH":10046,"BSTAR":0.0001196305,"MEAN_MOTION_DOT":0.00001834,"MEAN_MOTION_DDOT":0},{"OBJECT_NAME":"JILIN-01 KUANFU 02B 4","OBJECT_ID":"2024-169D","EPOCH":"2026-07-17T21:48:47.502432","CLASSIFICATION_TYPE":"U","MEAN_MOTION":15.09054872,"ECCENTRICITY":0.00142308,"INCLINATION":97.5529,"RA_OF_ASC_NODE":287.303,"ARG_OF_PERICENTER":154.9569,"MEAN_ANOMALY":205.2353,"EPHEMERIS_TYPE":0,"NORAD_CAT_ID":61192,"ELEMENT_SET_NO":999,"REV_AT_EPOCH":10046,"BSTAR":0.00013078388,"MEAN_MOTION_DOT":0.00002011,"MEAN_MOTION_DDOT":0},{"OBJECT_NAME":"JILIN-01 KUANFU 02B 5","OBJECT_ID":"2024-169E","EPOCH":"2026-07-17T21:30:01.982592","CLASSIFICATION_TYPE":"U","MEAN_MOTION":15.09085422,"ECCENTRICITY":0.0013415,"INCLINATION":97.5578,"RA_OF_ASC_NODE":288.0889,"ARG_OF_PERICENTER":178.1984,"MEAN_ANOMALY":181.9295,"EPHEMERIS_TYPE":0,"NORAD_CAT_ID":61193,"ELEMENT_SET_NO":999,"REV_AT_EPOCH":10046,"BSTAR":0.00010269573,"MEAN_MOTION_DOT":0.00001566,"MEAN_MOTION_DDOT":0},{"OBJECT_NAME":"JILIN-01 KUANFU 02B 6","OBJECT_ID":"2024-169F","EPOCH":"2026-07-17T22:04:10.391808","CLASSIFICATION_TYPE":"U","MEAN_MOTION":15.0904535,"ECCENTRICITY":0.00158529,"INCLINATION":97.5558,"RA_OF_ASC_NODE":288.0039,"ARG_OF_PERICENTER":211.4879,"MEAN_ANOMALY":148.5403,"EPHEMERIS_TYPE":0,"NORAD_CAT_ID":61194,"ELEMENT_SET_NO":999,"REV_AT_EPOCH":10047,"BSTAR":0.00013307719,"MEAN_MOTION_DOT":0.00002048,"MEAN_MOTION_DDOT":0}]}
